VSP RF A1               
1 59135U 24043AP  26066.03073316  .00000577  00000+0  25199-4 0  9997
2 59135  97.5247 201.5379 0009431 234.6315 125.4042 15.26179596111403
STARLINK-32644          
1 62151U 24224N   26068.27329560  .00035672  00000+0  13000-2 0  9993
2 62151  42.9931 160.6816 0000611 345.6563  14.4271 15.27569015 72417
